    <TRA:setting name="ProbKeplerLine1" value="0 BRIZ-M" />
    <TRA:setting name="ProbKeplerLine2" value="1 39286U 13056B   13330.80981764 -.00000059  00000-0  00000+0 0   250" />
    <TRA:setting name="ProbKeplerLine3" value="2 39286 023.5285 332.4959 6042427 021.7647 355.7158 02.18174083  1258" />
